KUIPER-00095            
1 65134U 25171C   25258.66928428  .00046837  00000+0  13250-2 0  9992
2 65134  51.8745 235.2543 0003766 288.5859  71.4717 15.35840830  6653
KUIPER-00096            
1 65135U 25171D   25258.66347543  .00039191  00000+0  11003-2 0  9995
2 65135  51.8737 235.2131 0003313 268.0219  92.0388 15.36160990  6655
KUIPER-00097            
1 65136U 25171E   25258.67089257  .00046205  00000+0  13127-2 0  9995
2 65136  51.8774 235.2727 0004382 286.3548  73.6956 15.35712903  6644
KUIPER-00098            
1 65137U 25171F   25258.65564061  .00036241  00000+0  10109-2 0  9991
2 65137  51.8734 235.1676 0003892 242.8265 117.2325 15.36399702  5992
KUIPER-00099            
1 65138U 25171G   25258.33280592  .00096694  00000+0  26564-2 0  9991
2 65138  51.8751 236.7559 0003583 250.5390 109.5209 15.36420263  6590
KUIPER-00100            
1 65139U 25171H   25258.66276558  .00037584  00000+0  10577-2 0  9995
2 65139  51.8740 235.2094 0003875 267.6847  92.3696 15.36106090  6641
KUIPER-00102            
1 65140U 25171J   25258.66984608  .00040828  00000+0  11599-2 0  9999
2 65140  51.8733 235.2538 0003644 282.5531  77.5048 15.35772552  6645
KUIPER-00103            
1 65141U 25171K   25258.66495458  .00033871  00000+0  95580-3 0  9993
2 65141  51.8764 235.2228 0003304 269.4561  90.6047 15.36073050  6649
